start=new Date('2022-10-30T00:00:00.000Z').valueOf();
sats=[{"SITE":"AFWTR","EPHEMERIS_TYPE":"0","SEMIMAJOR_AXIS":"6941.152","RA_OF_ASC_NODE":"182.3611","ELEMENT_SET_NO":"999","GP_ID":"216451319","APOAPSIS":"564.936","TLE_LINE2":"2 53662  97.6545 182.3611 0002765 106.4274 170.3720 15.01258429  9473","MEAN_ANOMALY":"170.3720","EPOCH":"2022-10-30T00:00:00.999648","ECCENTRICITY":"0.00027650","TLE_LINE1":"1 53662U 22105Q   22303.00001157  .00035452  00000-0  27509-2 0  9990","DECAY_DATE":null,"COUNTRY_CODE":"US","MEAN_MOTION_DOT":"0.00035452","OBJECT_NAME":"STARLINK-4357","MEAN_MOTION_DDOT":"0.0000000000000","TIME_SYSTEM":"UTC","CLASSIFICATION_TYPE":"U","RCS_SIZE":"LARGE","INCLINATION":"97.6545","OBJECT_ID":"2022-105Q","BSTAR":"0.00275090000000","PERIAPSIS":"561.097","MEAN_ELEMENT_THEORY":"SGP4","REV_AT_EPOCH":"947","NORAD_CAT_ID":"53662","PERIOD":"95.920","ARG_OF_PERICENTER":"106.4274","CENTER_NAME":"EARTH","OBJECT_TYPE":"PAYLOAD","FILE":"3637713","REF_FRAME":"TEME","LAUNCH_DATE":"2022-08-31","MEAN_MOTION":"15.01258429"},{"APOAPSIS":"564.652","MEAN_ANOMALY":"131.9829","EPOCH":"2022-10-30T00:00:00.999648","TLE_LINE2":"2 53663  97.6567 182.3628 0002347 114.8272 131.9829 15.01256285  9463","GP_ID":"216451323","SEMIMAJOR_AXIS":"6941.158","RA_OF_ASC_NODE":"182.3628","ELEMENT_SET_NO":"999","SITE":"AFWTR","EPHEMERIS_TYPE":"0","INCLINATION":"97.6567","RCS_SIZE":"LARGE","PERIAPSIS":"561.394","BSTAR":"0.00314960000000","OBJECT_ID":"2022-105R","TIME_SYSTEM":"UTC","CLASSIFICATION_TYPE":"U","OBJECT_NAME":"STARLINK-4457","MEAN_MOTION_DOT":"0.00040626","MEAN_MOTION_DDOT":"0.0000000000000","TLE_LINE1":"1 53663U 22105R   22303.00001157  .00040626  00000-0  31496-2 0  9990","ECCENTRICITY":"0.00023470","DECAY_DATE":null,"COUNTRY_CODE":"US","ARG_OF_PERICENTER":"114.8272","CENTER_NAME":"EARTH","PERIOD":"95.920","REV_AT_EPOCH":"946","NORAD_CAT_ID":"53663","MEAN_ELEMENT_THEORY":"SGP4","MEAN_MOTION":"15.01256285","LAUNCH_DATE":"2022-08-31","REF_FRAME":"TEME","OBJECT_TYPE":"PAYLOAD","FILE":"3637713"},{"COUNTRY_CODE":"US","DECAY_DATE":null,"TLE_LINE1":"1 53664U 22105S   22303.00001157  .00060247  00000-0  46581-2 0  9993","ECCENTRICITY":"0.00028360","MEAN_MOTION_DDOT":"0.0000000000000","OBJECT_NAME":"STARLINK-4471","MEAN_MOTION_DOT":"0.00060247","CLASSIFICATION_TYPE":"U","TIME_SYSTEM":"UTC","PERIAPSIS":"561.121","BSTAR":"0.00465810000000","OBJECT_ID":"2022-105S","INCLINATION":"97.6551","RCS_SIZE":"LARGE","EPHEMERIS_TYPE":"0","SITE":"AFWTR","ELEMENT_SET_NO":"999","RA_OF_ASC_NODE":"182.3621","SEMIMAJOR_AXIS":"6941.224","GP_ID":"216451347","EPOCH":"2022-10-30T00:00:00.999648","MEAN_ANOMALY":"178.9599","TLE_LINE2":"2 53664  97.6551 182.3621 0002836 107.8720 178.9599 15.01234869  9473","APOAPSIS":"565.058","FILE":"3637714","OBJECT_TYPE":"PAYLOAD","REF_FRAME":"TEME","MEAN_MOTION":"15.01234869","LAUNCH_DATE":"2022-08-31","MEAN_ELEMENT_THEORY":"SGP4","NORAD_CAT_ID":"53664","REV_AT_EPOCH":"947","PERIOD":"95.921","CENTER_NAME":"EARTH","ARG_OF_PERICENTER":"107.8720"},{"MEAN_MOTION":"15.01187141","LAUNCH_DATE":"2022-08-31","REF_FRAME":"TEME","FILE":"3637714","OBJECT_TYPE":"PAYLOAD","CENTER_NAME":"EARTH","ARG_OF_PERICENTER":"98.9240","PERIOD":"95.924","NORAD_CAT_ID":"53665","REV_AT_EPOCH":"947","MEAN_ELEMENT_THEORY":"SGP4","PERIAPSIS":"561.713","OBJECT_ID":"2022-105T","BSTAR":"0.00788240000000","INCLINATION":"97.6558","RCS_SIZE":"LARGE","CLASSIFICATION_TYPE":"U","TIME_SYSTEM":"UTC","MEAN_MOTION_DDOT":"0.0000000000000","OBJECT_NAME":"STARLINK-4334","MEAN_MOTION_DOT":"0.00102473","COUNTRY_CODE":"US","DECAY_DATE":null,"TLE_LINE1":"1 53665U 22105T   22303.00001157  .00102473  00000-0  78824-2 0  9997","ECCENTRICITY":"0.00021940","MEAN_ANOMALY":"166.5209","EPOCH":"2022-10-30T00:00:00.999648","TLE_LINE2":"2 53665  97.6558 182.3656 0002194  98.9240 166.5209 15.01187141  9474","APOAPSIS":"564.759","GP_ID":"216451847","ELEMENT_SET_NO":"999","RA_OF_ASC_NODE":"182.3656","SEMIMAJOR_AXIS":"6941.371","EPHEMERIS_TYPE":"0","SITE":"AFWTR"},{"MEAN_MOTION":"15.01236596","LAUNCH_DATE":"2022-08-31","REF_FRAME":"TEME","FILE":"3637715","OBJECT_TYPE":"PAYLOAD","CENTER_NAME":"EARTH","ARG_OF_PERICENTER":"105.1986","PERIOD":"95.921","NORAD_CAT_ID":"53666","REV_AT_EPOCH":"947","MEAN_ELEMENT_THEORY":"SGP4","PERIAPSIS":"560.925","OBJECT_ID":"2022-105U","BSTAR":"0.00455340000000","INCLINATION":"97.6541","RCS_SIZE":"LARGE","CLASSIFICATION_TYPE":"U","TIME_SYSTEM":"UTC","MEAN_MOTION_DDOT":"0.0000000000000","OBJECT_NAME":"STARLINK-4449","MEAN_MOTION_DOT":"0.00058884","COUNTRY_CODE":"US","DECAY_DATE":null,"TLE_LINE1":"1 53666U 22105U   22303.00001157  .00058884  00000-0  45534-2 0  9996","ECCENTRICITY":"0.00031110","MEAN_ANOMALY":"200.3120","EPOCH":"2022-10-30T00:00:00.999648","TLE_LINE2":"2 53666  97.6541 182.3616 0003111 105.1986 200.3120 15.01236596  9479","APOAPSIS":"565.243","GP_ID":"216451364","ELEMENT_SET_NO":"999","SEMIMAJOR_AXIS":"6941.219","RA_OF_ASC_NODE":"182.3616","EPHEMERIS_TYPE":"0","SITE":"AFWTR"},{"EPHEMERIS_TYPE":"0","SITE":"AFWTR","ELEMENT_SET_NO":"999","SEMIMAJOR_AXIS":"6941.151","RA_OF_ASC_NODE":"182.3667","GP_ID":"216453258","EPOCH":"2022-10-30T00:00:00.999648","MEAN_ANOMALY":"155.4668","TLE_LINE2":"2 53667  97.6555 182.3667 0002524 111.2568 155.4668 15.01258754  9479","APOAPSIS":"564.768","COUNTRY_CODE":"US","DECAY_DATE":null,"TLE_LINE1":"1 53667U 22105V   22303.00001157  .00000477  00000-0  41700-4 0  9995","ECCENTRICITY":"0.00025240","MEAN_MOTION_DDOT":"0.0000000000000","OBJECT_NAME":"STARLINK-4406","MEAN_MOTION_DOT":"0.00000477","CLASSIFICATION_TYPE":"U","TIME_SYSTEM":"UTC","PERIAPSIS":"561.264","BSTAR":"0.00004170000000","OBJECT_ID":"2022-105V","INCLINATION":"97.6555","RCS_SIZE":"LARGE","MEAN_ELEMENT_THEORY":"SGP4","NORAD_CAT_ID":"53667","REV_AT_EPOCH":"947","PERIOD":"95.920","CENTER_NAME":"EARTH","ARG_OF_PERICENTER":"111.2568","FILE":"3637787","OBJECT_TYPE":"PAYLOAD","REF_FRAME":"TEME","MEAN_MOTION":"15.01258754","LAUNCH_DATE":"2022-08-31"},{"OBJECT_TYPE":"PAYLOAD","FILE":"3637755","REF_FRAME":"TEME","MEAN_MOTION":"15.01225942","LAUNCH_DATE":"2022-08-31","MEAN_ELEMENT_THEORY":"SGP4","REV_AT_EPOCH":"947","NORAD_CAT_ID":"53668","PERIOD":"95.922","ARG_OF_PERICENTER":"104.5786","CENTER_NAME":"EARTH","TLE_LINE1":"1 53668U 22105W   22303.00001157 -.00051014  00000-0 -39991-2 0  9998","ECCENTRICITY":"0.00028900","COUNTRY_CODE":"US","DECAY_DATE":null,"OBJECT_NAME":"STARLINK-4458","MEAN_MOTION_DOT":"-0.00051014","MEAN_MOTION_DDOT":"0.0000000000000","TIME_SYSTEM":"UTC","CLASSIFICATION_TYPE":"U","INCLINATION":"97.6546","RCS_SIZE":"LARGE","PERIAPSIS":"561.111","BSTAR":"-0.00399910000000","OBJECT_ID":"2022-105W","SITE":"AFWTR","EPHEMERIS_TYPE":"0","SEMIMAJOR_AXIS":"6941.252","RA_OF_ASC_NODE":"182.3638","ELEMENT_SET_NO":"999","GP_ID":"216452362","APOAPSIS":"565.123","EPOCH":"2022-10-30T00:00:00.999648","MEAN_ANOMALY":"202.2301","TLE_LINE2":"2 53668  97.6546 182.3638 0002890 104.5786 202.2301 15.01225942  9479"},{"PERIOD":"95.920","CENTER_NAME":"EARTH","ARG_OF_PERICENTER":"109.5962","MEAN_ELEMENT_THEORY":"SGP4","NORAD_CAT_ID":"53669","REV_AT_EPOCH":"947","REF_FRAME":"TEME","MEAN_MOTION":"15.01247858","LAUNCH_DATE":"2022-08-31","FILE":"3637787","OBJECT_TYPE":"PAYLOAD","GP_ID":"216453260","MEAN_ANOMALY":"187.2164","EPOCH":"2022-10-30T00:00:00.999648","TLE_LINE2":"2 53669  97.6536 182.3604 0002790 109.5962 187.2164 15.01247858  9471","APOAPSIS":"564.986","EPHEMERIS_TYPE":"0","SITE":"AFWTR","ELEMENT_SET_NO":"999","SEMIMAJOR_AXIS":"6941.184","RA_OF_ASC_NODE":"182.3604","CLASSIFICATION_TYPE":"U","TIME_SYSTEM":"UTC","PERIAPSIS":"561.113","OBJECT_ID":"2022-105X","BSTAR":"0.00448630000000","INCLINATION":"97.6536","RCS_SIZE":"LARGE","DECAY_DATE":null,"COUNTRY_CODE":"US","TLE_LINE1":"1 53669U 22105X   22303.00001157  .00058024  00000-0  44863-2 0  9999","ECCENTRICITY":"0.00027900","MEAN_MOTION_DDOT":"0.0000000000000","OBJECT_NAME":"STARLINK-4464","MEAN_MOTION_DOT":"0.00058024"},{"TIME_SYSTEM":"UTC","CLASSIFICATION_TYPE":"U","RCS_SIZE":"LARGE","INCLINATION":"97.6538","BSTAR":"0.00436600000000","OBJECT_ID":"2022-105Y","PERIAPSIS":"560.835","ECCENTRICITY":"0.00032230","TLE_LINE1":"1 53670U 22105Y   22303.00001157  .00056444  00000-0  43660-2 0  9999","DECAY_DATE":null,"COUNTRY_CODE":"US","MEAN_MOTION_DOT":"0.00056444","OBJECT_NAME":"STARLINK-4459","MEAN_MOTION_DDOT":"0.0000000000000","GP_ID":"216453268","APOAPSIS":"565.310","TLE_LINE2":"2 53670  97.6538 182.3601 0003223 107.7031 219.1214 15.01240322  9471","MEAN_ANOMALY":"219.1214","EPOCH":"2022-10-30T00:00:00.999648","SITE":"AFWTR","EPHEMERIS_TYPE":"0","RA_OF_ASC_NODE":"182.3601","SEMIMAJOR_AXIS":"6941.208","ELEMENT_SET_NO":"999","REF_FRAME":"TEME","LAUNCH_DATE":"2022-08-31","MEAN_MOTION":"15.01240322","OBJECT_TYPE":"PAYLOAD","FILE":"3637788","PERIOD":"95.921","ARG_OF_PERICENTER":"107.7031","CENTER_NAME":"EARTH","MEAN_ELEMENT_THEORY":"SGP4","REV_AT_EPOCH":"947","NORAD_CAT_ID":"53670"},{"GP_ID":"216453522","MEAN_ANOMALY":"210.0930","EPOCH":"2022-10-30T00:00:00.999648","TLE_LINE2":"2 53671  97.6525 182.3596 0002630 106.7213 210.0930 15.01243305  9472","APOAPSIS":"564.889","EPHEMERIS_TYPE":"0","SITE":"AFWTR","ELEMENT_SET_NO":"999","SEMIMAJOR_AXIS":"6941.198","RA_OF_ASC_NODE":"182.3596","CLASSIFICATION_TYPE":"U","TIME_SYSTEM":"UTC","PERIAPSIS":"561.238","BSTAR":"0.00432900000000","OBJECT_ID":"2022-105Z","INCLINATION":"97.6525","RCS_SIZE":"LARGE","DECAY_DATE":null,"COUNTRY_CODE":"US","TLE_LINE1":"1 53671U 22105Z   22303.00001157  .00055964  00000-0  43290-2 0  9995","ECCENTRICITY":"0.00026300","MEAN_MOTION_DDOT":"0.0000000000000","OBJECT_NAME":"STARLINK-4440","MEAN_MOTION_DOT":"0.00055964","PERIOD":"95.920","CENTER_NAME":"EARTH","ARG_OF_PERICENTER":"106.7213","MEAN_ELEMENT_THEORY":"SGP4","NORAD_CAT_ID":"53671","REV_AT_EPOCH":"947","REF_FRAME":"TEME","MEAN_MOTION":"15.01243305","LAUNCH_DATE":"2022-08-31","FILE":"3637788","OBJECT_TYPE":"PAYLOAD"}];
